{
  "type": "FeatureCollection",
  "features": [
    {
      "type": "Feature",
      "properties": {
        "norad_id": 41581,
        "name": "INTELSAT 31 (IS-31)",
        "group": "intelsat",
        "lat": 0.011411914292370115,
        "lon": 93.19543454996611,
        "alt_km": 35791.62946620701,
        "timestamp": "2025-12-04T07:39:35.838241+00:00",
        "meta_object_name": "INTELSAT 31 (IS-31)",
        "meta_object_id": "2016-035A",
        "meta_epoch": "2025-12-03T13:18:15.813216",
        "meta_mean_motion": 1.0027005,
        "meta_eccentricity": 0.00020986,
        "meta_inclination": 0.0165,
        "meta_ra_of_asc_node": 271.6332,
        "meta_arg_of_pericenter": 305.8436,
        "meta_mean_anomaly": 319.6781,
        "meta_ephemeris_type": 0,
        "meta_classification_type": "U",
        "meta_norad_cat_id": 41581,
        "meta_element_set_no": 999,
        "meta_rev_at_epoch": 3472,
        "meta_bstar": 0,
        "meta_mean_motion_dot": -1.33e-06,
        "meta_mean_motion_ddot": 0,
        "tle_line1": "1 41581U 16035A   25337.55434969 -.00000133  00000+0  00000+0 0  9995",
        "tle_line2": "2 41581   0.0165 271.6332 0002098 305.8436 319.6781  1.00270050 34721"
      },
      "geometry": {
        "type": "Point",
        "coordinates": [
          93.19543454996611,
          0.011411914292370115
        ]
      }
    },
    {
      "type": "Feature",
      "properties": {
        "norad_id": 41747,
        "name": "INTELSAT 36 (IS-36)",
        "group": "intelsat",
        "lat": -0.03292904579671268,
        "lon": -103.2437190882171,
        "alt_km": 35783.7507332697,
        "timestamp": "2025-12-04T07:39:35.838251+00:00",
        "meta_object_name": "INTELSAT 36 (IS-36)",
        "meta_object_id": "2016-053A",
        "meta_epoch": "2025-12-03T20:09:58.164192",
        "meta_mean_motion": 1.00268515,
        "meta_eccentricity": 0.00015172,
        "meta_inclination": 0.0123,
        "meta_ra_of_asc_node": 0.9905,
        "meta_arg_of_pericenter": 315.4282,
        "meta_mean_anomaly": 127.5011,
        "meta_ephemeris_type": 0,
        "meta_classification_type": "U",
        "meta_norad_cat_id": 41747,
        "meta_element_set_no": 999,
        "meta_rev_at_epoch": 3399,
        "meta_bstar": 0,
        "meta_mean_motion_dot": -7e-08,
        "meta_mean_motion_ddot": 0,
        "tle_line1": "1 41747U 16053A   25337.84025653 -.00000007  00000+0  00000+0 0  9997",
        "tle_line2": "2 41747   0.0123   0.9905 0001517 315.4282 127.5011  1.00268515 33992"
      },
      "geometry": {
        "type": "Point",
        "coordinates": [
          -103.2437190882171,
          -0.03292904579671268
        ]
      }
    },
    {
      "type": "Feature",
      "properties": {
        "norad_id": 41945,
        "name": "INTELSAT 32E (IS-32E)",
        "group": "intelsat",
        "lat": 0.017112859968291625,
        "lon": 145.09506505904292,
        "alt_km": 35787.79177107306,
        "timestamp": "2025-12-04T07:39:35.838262+00:00",
        "meta_object_name": "INTELSAT 32E (IS-32E)",
        "meta_object_id": "2017-007B",
        "meta_epoch": "2025-12-03T16:58:20.260416",
        "meta_mean_motion": 1.00269353,
        "meta_eccentricity": 2.437e-05,
        "meta_inclination": 0.0313,
        "meta_ra_of_asc_node": 71.605,
        "meta_arg_of_pericenter": 272.0907,
        "meta_mean_anomaly": 300.5079,
        "meta_ephemeris_type": 0,
        "meta_classification_type": "U",
        "meta_norad_cat_id": 41945,
        "meta_element_set_no": 999,
        "meta_rev_at_epoch": 3226,
        "meta_bstar": 0,
        "meta_mean_motion_dot": -2.51e-06,
        "meta_mean_motion_ddot": 0,
        "tle_line1": "1 41945U 17007B   25337.70717894 -.00000251  00000+0  00000+0 0  9998",
        "tle_line2": "2 41945   0.0313  71.6050 0000243 272.0907 300.5079  1.00269353 32263"
      },
      "geometry": {
        "type": "Point",
        "coordinates": [
          145.09506505904292,
          0.017112859968291625
        ]
      }
    },
    {
      "type": "Feature",
      "properties": {
        "norad_id": 42818,
        "name": "INTELSAT 35E (IS-35E)",
        "group": "intelsat",
        "lat": -0.0065495243436240426,
        "lon": 153.76506243875573,
        "alt_km": 35788.87730031425,
        "timestamp": "2025-12-04T07:39:35.838272+00:00",
        "meta_object_name": "INTELSAT 35E (IS-35E)",
        "meta_object_id": "2017-041A",
        "meta_epoch": "2025-12-03T17:00:57.508416",
        "meta_mean_motion": 1.00270769,
        "meta_eccentricity": 0.00024271,
        "meta_inclination": 0.0092,
        "meta_ra_of_asc_node": 324.1753,
        "meta_arg_of_pericenter": 293.4784,
        "meta_mean_anomaly": 35.9019,
        "meta_ephemeris_type": 0,
        "meta_classification_type": "U",
        "meta_norad_cat_id": 42818,
        "meta_element_set_no": 999,
        "meta_rev_at_epoch": 3085,
        "meta_bstar": 0,
        "meta_mean_motion_dot": -2.2e-06,
        "meta_mean_motion_ddot": 0,
        "tle_line1": "1 42818U 17041A   25337.70899894 -.00000220  00000+0  00000+0 0  9993",
        "tle_line2": "2 42818   0.0092 324.1753 0002427 293.4784  35.9019  1.00270769 30858"
      },
      "geometry": {
        "type": "Point",
        "coordinates": [
          153.76506243875573,
          -0.0065495243436240426
        ]
      }
    },
    {
      "type": "Feature",
      "properties": {
        "norad_id": 42950,
        "name": "INTELSAT 37E (IS-37E)",
        "group": "intelsat",
        "lat": -0.021796765587268594,
        "lon": 170.23884818836748,
        "alt_km": 35783.13260800321,
        "timestamp": "2025-12-04T07:39:35.838282+00:00",
        "meta_object_name": "INTELSAT 37E (IS-37E)",
        "meta_object_id": "2017-059A",
        "meta_epoch": "2025-12-03T19:04:38.697312",
        "meta_mean_motion": 1.00270782,
        "meta_eccentricity": 0.00034558,
        "meta_inclination": 0.0167,
        "meta_ra_of_asc_node": 318.1373,
        "meta_arg_of_pericenter": 289.2489,
        "meta_mean_anomaly": 93.6607,
        "meta_ephemeris_type": 0,
        "meta_classification_type": "U",
        "meta_norad_cat_id": 42950,
        "meta_element_set_no": 999,
        "meta_rev_at_epoch": 3010,
        "meta_bstar": 0,
        "meta_mean_motion_dot": -1.23e-06,
        "meta_mean_motion_ddot": 0,
        "tle_line1": "1 42950U 17059A   25337.79489233 -.00000123  00000+0  00000+0 0  9992",
        "tle_line2": "2 42950   0.0167 318.1373 0003455 289.2489  93.6607  1.00270782 30103"
      },
      "geometry": {
        "type": "Point",
        "coordinates": [
          170.23884818836748,
          -0.021796765587268594
        ]
      }
    },
    {
      "type": "Feature",
      "properties": {
        "norad_id": 43632,
        "name": "AZERSPACE 2 (IS-38)",
        "group": "intelsat",
        "lat": -0.0400910725497516,
        "lon": -126.62341043148464,
        "alt_km": 35779.38828845513,
        "timestamp": "2025-12-04T07:39:35.838293+00:00",
        "meta_object_name": "AZERSPACE 2 (IS-38)",
        "meta_object_id": "2018-074A",
        "meta_epoch": "2025-12-03T17:23:40.331904",
        "meta_mean_motion": 1.0027174,
        "meta_eccentricity": 0.00017416,
        "meta_inclination": 0.0176,
        "meta_ra_of_asc_node": 347.6047,
        "meta_arg_of_pericenter": 271.7152,
        "meta_mean_anomaly": 119.5202,
        "meta_ephemeris_type": 0,
        "meta_classification_type": "U",
        "meta_norad_cat_id": 43632,
        "meta_element_set_no": 999,
        "meta_rev_at_epoch": 2648,
        "meta_bstar": 0,
        "meta_mean_motion_dot": 1.54e-06,
        "meta_mean_motion_ddot": 0,
        "tle_line1": "1 43632U 18074A   25337.72477236  .00000154  00000+0  00000+0 0  9994",
        "tle_line2": "2 43632   0.0176 347.6047 0001741 271.7152 119.5202  1.00271740 26485"
      },
      "geometry": {
        "type": "Point",
        "coordinates": [
          -126.62341043148464,
          -0.0400910725497516
        ]
      }
    },
    {
      "type": "Feature",
      "properties": {
        "norad_id": 43633,
        "name": "HORIZONS-3E",
        "group": "intelsat",
        "lat": 0.016896583080075443,
        "lon": -2.705047396755933,
        "alt_km": 35785.21179576963,
        "timestamp": "2025-12-04T07:39:35.838303+00:00",
        "meta_object_name": "HORIZONS-3E",
        "meta_object_id": "2018-074B",
        "meta_epoch": "2025-12-02T09:32:38.562720",
        "meta_mean_motion": 1.00268601,
        "meta_eccentricity": 0.00010808,
        "meta_inclination": 0.0303,
        "meta_ra_of_asc_node": 208.778,
        "meta_arg_of_pericenter": 80.6678,
        "meta_mean_anomaly": 94.2479,
        "meta_ephemeris_type": 0,
        "meta_classification_type": "U",
        "meta_norad_cat_id": 43633,
        "meta_element_set_no": 999,
        "meta_rev_at_epoch": 2636,
        "meta_bstar": 0,
        "meta_mean_motion_dot": -1e-07,
        "meta_mean_motion_ddot": 0,
        "tle_line1": "1 43633U 18074B   25336.39766855 -.00000010  00000+0  00000+0 0  9997",
        "tle_line2": "2 43633   0.0303 208.7780 0001080  80.6678  94.2479  1.00268601 26369"
      },
      "geometry": {
        "type": "Point",
        "coordinates": [
          -2.705047396755933,
          0.016896583080075443
        ]
      }
    }
  ]
}